[{"OBJECT_NAME":"STARLINK-31711","OBJECT_ID":"2024-065T","EPOCH":"2026-03-09T21:35:54.365856","MEAN_MOTION":15.30193285,"ECCENTRICITY":0.00012082,"INCLINATION":53.1599,"RA_OF_ASC_NODE":280.5503,"ARG_OF_PERICENTER":104.8022,"MEAN_ANOMALY":255.3113,"EPHEMERIS_TYPE":0,"CLASSIFICATION_TYPE":"U","NORAD_CAT_ID":59438,"ELEMENT_SET_NO":999,"REV_AT_EPOCH":10896,"BSTAR":9.171415e-6,"MEAN_MOTION_DOT":-8.8e-7,"MEAN_MOTION_DDOT":0},{"OBJECT_NAME":"CERISE","OBJECT_ID":"1995-033B","EPOCH":"2026-03-09T23:11:27.589056","MEAN_MOTION":15.32047731,"ECCENTRICITY":0.00057118,"INCLINATION":98.325,"RA_OF_ASC_NODE":273.5192,"ARG_OF_PERICENTER":211.8754,"MEAN_ANOMALY":148.214,"EPHEMERIS_TYPE":0,"CLASSIFICATION_TYPE":"U","NORAD_CAT_ID":23606,"ELEMENT_SET_NO":999,"REV_AT_EPOCH":66468,"BSTAR":0.00062940675,"MEAN_MOTION_DOT":0.00019422,"MEAN_MOTION_DDOT":0}]
